[{"OBJECT_NAME":"STARLINK-1464","OBJECT_ID":"2020-038X","EPOCH":"2026-03-09T15:10:07.908672","MEAN_MOTION":15.44102768,"ECCENTRICITY":0.0002165,"INCLINATION":53.0521,"RA_OF_ASC_NODE":204.9004,"ARG_OF_PERICENTER":268.0966,"MEAN_ANOMALY":91.9792,"EPHEMERIS_TYPE":0,"CLASSIFICATION_TYPE":"U","NORAD_CAT_ID":45751,"ELEMENT_SET_NO":999,"REV_AT_EPOCH":31664,"BSTAR":0.0018543,"MEAN_MOTION_DOT":0.00086712,"MEAN_MOTION_DDOT":0},{"OBJECT_NAME":"OBJECT AK","OBJECT_ID":"2024-199AK","EPOCH":"2026-03-09T21:33:12.117024","MEAN_MOTION":15.45335097,"ECCENTRICITY":0.00044603,"INCLINATION":97.3127,"RA_OF_ASC_NODE":302.7659,"ARG_OF_PERICENTER":300.4688,"MEAN_ANOMALY":59.612,"EPHEMERIS_TYPE":0,"CLASSIFICATION_TYPE":"U","NORAD_CAT_ID":61768,"ELEMENT_SET_NO":999,"REV_AT_EPOCH":11898,"BSTAR":0.00054405421,"MEAN_MOTION_DOT":0.00025914,"MEAN_MOTION_DDOT":0}]
